COSMOS 2361 [-]         
1 25590U 98076A   22349.22481688  .00000068  00000+0  56261-4 0  9997
2 25590  82.9350  72.5400 0032718  67.2211 322.1833 13.73036964201342
COSMOS 2378 [-]         
1 26818U 01023A   22348.80333295  .00000073  00000+0  61593-4 0  9990
2 26818  82.9281  90.5652 0033193  15.1226  97.0736 13.73980809 79073
COSMOS 2389 [-]         
1 27436U 02026A   22349.11273289  .00000057  00000+0  44071-4 0  9996
2 27436  82.9517  36.3179 0045368 230.4792 158.1298 13.74989746 31251
COSMOS 2398 [-]         
1 27818U 03023A   22349.28402778  .00000050  00000+0  38740-4 0  9992
2 27818  82.9482 358.3727 0029918 269.7058 278.2319 13.72225073978189
COSMOS 2407 [+]         
1 28380U 04028A   22349.43135118  .00000073  00000+0  59185-4 0  9992
2 28380  82.9600 302.4320 0038071 230.2548 247.3730 13.76129379924048
COSMOS 2414 [+]         
1 28521U 05002A   22348.58326984  .00000078  00000+0  51997-4 0  9998
2 28521  82.9493 292.0371 0040920  22.4063 337.8875 13.87675150906538
COSMOS 2429 [-]         
1 32052U 07038A   22348.98832691  .00000049  00000+0  34870-4 0  9993
2 32052  82.9815  69.2999 0037901 208.3595 151.5499 13.74977802765801
COSMOS 2454 [-]         
1 35635U 09039A   22349.09042227  .00000099  00000+0  68280-4 0  9994
2 35635  82.9564 277.6626 0018558 325.5534  44.6831 13.89704492679788
COSMOS 2463 [+]         
1 36519U 10017A   22348.86983146  .00000075  00000+0  66109-4 0  9994
2 36519  82.9601 110.3038 0037460  82.9268  67.6337 13.71487473632427
